STARLINK-1050
1 24755C 19074AU  21325.13511561  .00003945  00000-0  26424-3 0  3257
2 24755  53.0526  72.6541 0001074  79.3519 220.2100 15.06402631    15
